ONEWEB-0144             
1 47290U 20100AJ  24300.90498949 -.00000046  00000+0 -16459-3 0  9995
2 47290  87.8838 109.7930 0001456  76.0190 284.1100 13.12443388186091
ONEWEB-0145             
1 47291U 20100AK  24300.87579170 -.00000247  00000+0 -72270-3 0  9994
2 47291  87.8839 109.8232 0001523  84.6720 275.4582 13.12440817186280
ONEWEB-0146             
1 47292U 20100AL  24300.87255104 -.00000032  00000+0 -12329-3 0  9994
2 47292  87.8839 109.8084 0001852  99.7502 260.3836 13.12440856186194
ONEWEB-0147             
1 47293U 20100AM  24300.83848987  .00000276  00000+0  73262-3 0  9999
2 47293  87.8836 109.8044 0001773  79.0819 281.0509 13.12442277186086
ONEWEB-0115             
1 48042U 21025A   24300.87658727 -.00000281  00000+0 -80430-3 0  9997
2 48042  87.8885  79.2461 0001673  97.6470 262.4849 13.13471000175056
ONEWEB-0152             
1 48043U 21025B   24300.88928140 -.00000207  00000+0 -60200-3 0  9999
2 48043  87.8888  79.2470 0001676  94.5370 265.5951 13.13468907175014
ONEWEB-0153             
1 48044U 21025C   24300.86706570 -.00000113  00000+0 -34325-3 0  9994
2 48044  87.8894  79.2425 0001554  94.1954 265.9353 13.13468694175003
ONEWEB-0154             
1 48045U 21025D   24300.86388446 -.00000064  00000+0 -21123-3 0  9990
2 48045  87.8891  79.2504 0001670  93.2649 266.8671 13.13466595174964
